NORAD_CAT_ID,OBJECT_NAME,OBJECT_TYPE,EPOCH,MEAN_MOTION,ECCENTRICITY,INCLINATION,RA_OF_ASC_NODE,ARG_OF_PERICENTER,MEAN_ANOMALY,BSTAR,MEAN_MOTION_DOT,MEAN_MOTION_DDOT,TLE_LINE0,TLE_LINE1,TLE_LINE2,SEMIMAJOR_AXIS,PERIOD,APOGEE,PERIGEE,DECAYED
53741.0,STARLINK-4614,PAYLOAD,2022-10-27 22:00:00,15.644000699999998,0.0006431,53.2174,13.4229,269.6725,196.0495,-0.0069461,-0.00630383,0.0,0 STARLINK-4614,1 53741U 22107AT  22300.91667824 -.00630383  00000-0 -69461-2 0  9995,2 53741  53.2174  13.4229 0006431 269.6725 196.0495 15.64400070  1301,6753.102,92.048,379.31,370.624,0.0
53741.0,STARLINK-4614,PAYLOAD,2022-10-28 14:00:01,15.63523196,0.0003906,53.2175,10.1694,269.3209,352.1066,-0.0069881,-0.00613033,0.0,0 STARLINK-4614,1 53741U 22107AT  22301.58335648 -.00613033  00000-0 -69881-2 0  9994,2 53741  53.2175  10.1694 0003906 269.3209 352.1066 15.63523196  1303,6755.626,92.1,380.13,374.853,0.0
53741.0,STARLINK-4614,PAYLOAD,2022-10-28 22:00:01,15.63085771,0.0001886999999999,53.2175,8.5427,288.1649,50.302,-0.0070468999999999,-0.00607579,0.0,0 STARLINK-4614,1 53741U 22107AT  22301.91668981 -.00607579  00000-0 -70469-2 0  9992,2 53741  53.2175   8.5427 0001887 288.1649  50.3020 15.63085771  1300,6756.887,92.125,380.027,377.477,0.0
53741.0,STARLINK-4614,PAYLOAD,2022-10-29 12:00:00,15.62336152,8.31e-05,53.2176,5.7015,57.6653,324.2913,-0.0074551999999999,-0.00622768,0.0,0 STARLINK-4614,1 53741U 22107AT  22302.50001157 -.00622768  00000-0 -74552-2 0  9998,2 53741  53.2176   5.7015 0000831  57.6653 324.2913 15.62336152  1300,6759.0480000000025,92.17,381.475,380.351,0.0
53741.0,STARLINK-4614,PAYLOAD,2022-10-29 22:00:01,15.61788663,0.0001262999999999,53.2174,3.6727,61.98,144.4665,-0.0075346999999999,-0.00616612,0.0,0 STARLINK-4614,1 53741U 22107AT  22302.91668981 -.00616612  00000-0 -75347-2 0  9991,2 53741  53.2174   3.6727 0001263  61.9800 144.4665 15.61788663  1300,6760.627,92.202,383.346,381.638,0.0
53741.0,STARLINK-4614,PAYLOAD,2022-10-30 00:00:00,15.61677117,0.0001146,53.2173,3.2672,63.5295,251.6397,-0.0075026,-0.00611676,0.0,0 STARLINK-4614,1 53741U 22107AT  22303.00001157 -.00611676  00000-0 -75026-2 0  9997,2 53741  53.2173   3.2672 0001146  63.5295 251.6397 15.61677117  8727,6760.949000000001,92.209,383.589,382.039,0.0
53741.0,STARLINK-4614,PAYLOAD,2022-10-30 14:00:01,15.60914556,0.0001146,53.2173,0.4328,64.0508,291.7123,-0.0076694999999999,-0.00607352,0.0,0 STARLINK-4614,1 53741U 22107AT  22303.58334491 -.00607352  00000-0 -76695-2 0  9999,2 53741  53.2173   0.4328 0001146  64.0508 291.7123 15.60914556  1306,6763.151,92.254,385.791,384.241,0.0
53741.0,STARLINK-4614,PAYLOAD,2022-10-30 22:00:01,15.60481486,0.0001322,53.2174,358.8117,48.105,21.6317,-0.0078184,-0.0060878,0.0,0 STARLINK-4614,1 53741U 22107AT  22303.91668981 -.00608780  00000-0 -78184-2 0  9991,2 53741  53.2174 358.8117 0001322  48.1050  21.6317 15.60481486  1300,6764.401999999999,92.279,387.162,385.37300000000016,0.0
53741.0,STARLINK-4614,PAYLOAD,2022-10-31 14:00:01,15.59609736,0.0001357,53.2175,355.5783,57.5475,158.3752,-0.0079893999999999,-0.00602087,0.0,0 STARLINK-4614,1 53741U 22107AT  22304.58334491 -.00602087  00000-0 -79894-2 0  9994,2 53741  53.2175 355.5783 0001357  57.5475 158.3752 15.59609736  1306,6766.9230000000025,92.331,389.706,387.869,0.0
53741.0,STARLINK-4614,PAYLOAD,2022-10-31 22:00:01,15.59183425,0.0001276,53.2176,353.9609,53.3802,234.9485,-0.008302,-0.00614551,0.0,0 STARLINK-4614,1 53741U 22107AT  22304.91668981 -.00614551  00000-0 -83020-2 0  9990,2 53741  53.2176 353.9609 0001276  53.3802 234.9485 15.59183425  9027,6768.156,92.356,390.885,389.158,0.0
53741.0,STARLINK-4614,PAYLOAD,2022-11-01 14:00:01,15.58309136,0.0001425,53.2173,350.7335,48.0472,23.3398,-0.0084287,-0.00604302,0.0,0 STARLINK-4614,1 53741U 22107AT  22305.58334491 -.00604302  00000-0 -84287-2 0  9999,2 53741  53.2173 350.7335 0001425  48.0472  23.3398 15.58309136  1309,6770.687,92.408,393.517,391.588,0.0
53741.0,STARLINK-4614,PAYLOAD,2022-11-01 22:00:00,15.57879343,0.0001439,53.2174,349.1193,47.1972,94.9674,-0.0086641,-0.00610665,0.0,0 STARLINK-4614,1 53741U 22107AT  22305.91667824 -.00610665  00000-0 -86641-2 0  9990,2 53741  53.2174 349.1193 0001439  47.1972  94.9674 15.57879343  1306,6771.933000000001,92.433,394.772,392.823,0.0
53741.0,STARLINK-4614,PAYLOAD,2022-11-02 06:00:00,15.57446318,0.0001489,53.2175,347.5081,50.5276,161.8934,-0.0088312,-0.00612239,0.0,0 STARLINK-4614,1 53741U 22107AT  22306.25001157 -.00612239  00000-0 -88312-2 0  9995,2 53741  53.2175 347.5081 0001489  50.5276 161.8934 15.57446318  9230,6773.188,92.459,396.061,394.044,0.0
53741.0,STARLINK-4614,PAYLOAD,2022-11-02 14:00:01,15.57010687,0.0001434,53.2173,345.8987,46.8327,235.3234,-0.0089263,-0.00609013,0.0,0 STARLINK-4614,1 53741U 22107AT  22306.58334491 -.00609013  00000-0 -89263-2 0  9993,2 53741  53.2173 345.8987 0001434  46.8327 235.3234 15.57010687  1305,6774.451,92.485,397.288,395.345,0.0
53741.0,STARLINK-4614,PAYLOAD,2022-11-02 22:00:00,15.56577705,0.0001230999999999,53.2174,344.287,54.0336,297.3377,-0.0091158,-0.00611692,0.0,0 STARLINK-4614,1 53741U 22107AT  22306.91667824 -.00611692  00000-0 -91158-2 0  9991,2 53741  53.2174 344.2870 0001231  54.0336 297.3377 15.56577705  1300,6775.706999999999,92.511,398.406,396.73800000000006,0.0
53741.0,STARLINK-4614,PAYLOAD,2022-11-03 06:00:02,15.56146208,0.0001482,53.2173,342.6779,44.8479,15.2799,-0.009328,-0.00615652,0.0,0 STARLINK-4614,1 53741U 22107AT  22307.25002315 -.00615652  00000-0 -93280-2 0  9995,2 53741  53.2173 342.6779 0001482  44.8479  15.2799 15.56146208  9394,6776.96,92.536,399.829,397.82,0.0
53741.0,STARLINK-4614,PAYLOAD,2022-11-03 14:00:01,15.55710188,0.0001414,53.2174,341.07199999999995,50.3382,77.8951,-0.009407,-0.0061119999999999,0.0,0 STARLINK-4614,1 53741U 22107AT  22307.58334491 -.00611200  00000-0 -94070-2 0  9997,2 53741  53.2174 341.0720 0001414  50.3382  77.8951 15.55710188  1304,6778.226,92.562,401.049,399.133,0.0
53741.0,STARLINK-4614,PAYLOAD,2022-11-03 22:00:00,15.55275155,0.0001337,53.2175,339.4639,57.5095,138.3748,-0.0095394,-0.00609961,0.0,0 STARLINK-4614,1 53741U 22107AT  22307.91667824 -.00609961  00000-0 -95394-2 0  9994,2 53741  53.2175 339.4639 0001337  57.5095 138.3748 15.55275155  1306,6779.49,92.588,402.261,400.448,0.0
53741.0,STARLINK-4614,PAYLOAD,2022-11-04 14:00:01,15.54408498,0.0001293,53.2173,336.2559,52.3744,277.2423,-0.0098756,-0.0061145,0.0,0 STARLINK-4614,1 53741U 22107AT  22308.58334491 -.00611450  00000-0 -98756-2 0  9990,2 53741  53.2173 336.2559 0001293  52.3744 277.2423 15.54408498  9594,6782.01,92.64,404.752,402.99800000000016,0.0
53741.0,STARLINK-4614,PAYLOAD,2022-11-04 22:00:01,15.53960878,0.0001567,53.2172,334.65,35.768,0.0067,-0.0097215,-0.00593481,0.0,0 STARLINK-4614,1 53741U 22107AT  22308.91668981 -.00593481  00000-0 -97215-2 0  9993,2 53741  53.2172 334.6500 0001567  35.7680   0.0067 15.53960878  1300,6783.312,92.666,406.24,404.114,0.0
53741.0,STARLINK-4614,PAYLOAD,2022-11-05 14:00:01,15.53099866,0.0001703,53.2169,331.4482,40.708,125.6671,-0.010198,-0.00602606,0.0,0 STARLINK-4614,1 53741U 22107AT  22309.58335648 -.00602606  00000-0 -10198-1 0  9992,2 53741  53.2169 331.4482 0001703  40.7080 125.6671 15.53099866  9754,6785.819,92.718,408.839,406.528,0.0
53741.0,STARLINK-4614,PAYLOAD,2022-11-05 22:00:01,15.52653975,0.0001593,53.2171,329.8458,40.6898,190.213,-0.010069,-0.00586589,0.0,0 STARLINK-4614,1 53741U 22107AT  22309.91668981 -.00586589  00000-0 -10069-1 0  9996,2 53741  53.2171 329.8458 0001593  40.6898 190.2130 15.52653975  1301,6787.118,92.744,410.064,407.902,0.0
53741.0,STARLINK-4614,PAYLOAD,2022-11-06 14:00:01,15.51823417,0.0001574,53.2168,326.6501,34.5295,323.7639,-0.011326,-0.00636234,0.0,0 STARLINK-4614,1 53741U 22107AT  22310.58334491 -.00636234  00000-0 -11326-1 0  9997,2 53741  53.2168 326.6501 0001574  34.5295 323.7639 15.51823417  9903,6789.5390000000025,92.794,412.473,410.336,0.0
53741.0,STARLINK-4614,PAYLOAD,2022-11-07 14:00:01,15.50498622,0.0001689,53.2167,321.8616,41.928,143.6807,-0.011292,-0.00607123,0.0,0 STARLINK-4614,1 53741U 22107AT  22311.58334491 -.00607123  00000-0 -11292-1 0  9995,2 53741  53.2167 321.8616 0001689  41.9280 143.6807 15.50498622 10069,6793.406,92.873,416.419,414.124,0.0
53741.0,STARLINK-4614,PAYLOAD,2022-11-07 22:00:00,15.50067608,0.0001528,53.2173,320.2664,46.0893,200.9096,-0.011548,-0.00611078,0.0,0 STARLINK-4614,1 53741U 22107AT  22311.91667824 -.00611078  00000-0 -11548-1 0  9999,2 53741  53.2173 320.2664 0001528  46.0893 200.9096 15.50067608  1300,6794.665,92.899,417.569,415.492,0.0
53741.0,STARLINK-4614,PAYLOAD,2022-11-08 14:00:01,15.49205781,0.0001659,53.2164,317.0825,34.7896,333.4234,-0.012078,-0.00619232,0.0,0 STARLINK-4614,1 53741U 22107AT  22312.58334491 -.00619232  00000-0 -12078-1 0  9993,2 53741  53.2164 317.0825 0001659  34.7896 333.4234 15.49205781 10215,6797.185,92.951,420.17800000000005,417.923,0.0
53741.0,STARLINK-4614,PAYLOAD,2022-11-08 22:00:00,15.48756299,0.0001575,53.2168,315.4898,40.8986,27.15,-0.01184,-0.00599007,0.0,0 STARLINK-4614,1 53741U 22107AT  22312.91667824 -.00599007  00000-0 -11840-1 0  9992,2 53741  53.2168 315.4898 0001575  40.8986  27.1500 15.48756299  1303,6798.5,92.978,421.436,419.294,0.0
53741.0,STARLINK-4614,PAYLOAD,2022-11-09 14:00:01,15.47877217,0.0001633,53.2165,312.3127,42.8233,143.3184,-0.011866,-0.00583239,0.0,0 STARLINK-4614,1 53741U 22107AT  22313.58334491 -.00583239  00000-0 -11866-1 0  9995,2 53741  53.2165 312.3127 0001633  42.8233 143.3184 15.47877217  1305,6801.074000000001,93.031,424.05,421.828,0.0
53741.0,STARLINK-4614,PAYLOAD,2022-11-09 22:00:01,15.47438818,0.0001721999999999,53.2168,310.723,39.0467,205.4246,-0.011912,-0.00577058,0.0,0 STARLINK-4614,1 53741U 22107AT  22313.91668981 -.00577058  00000-0 -11912-1 0  9990,2 53741  53.2168 310.7230 0001722  39.0467 205.4246 15.47438818 10423,6802.359,93.057,425.395,423.052,0.0
